[{"OBJECT_NAME":"STARLINK-1557","OBJECT_ID":"2020-055H","EPOCH":"2026-03-10T00:00:02.999808","MEAN_MOTION":15.2035016,"ECCENTRICITY":0.0001718,"INCLINATION":53.1122,"RA_OF_ASC_NODE":124.7429,"ARG_OF_PERICENTER":94.4179,"MEAN_ANOMALY":143.9555,"EPHEMERIS_TYPE":0,"CLASSIFICATION_TYPE":"U","NORAD_CAT_ID":46034,"ELEMENT_SET_NO":999,"REV_AT_EPOCH":578,"BSTAR":0.0055116646,"MEAN_MOTION_DOT":0.00123185,"MEAN_MOTION_DDOT":0},{"OBJECT_NAME":"TRANSPORTER-15 OBJECT DD","OBJECT_ID":"2025-276DD","EPOCH":"2026-03-09T18:14:00.417120","MEAN_MOTION":15.21415717,"ECCENTRICITY":0.00010897,"INCLINATION":97.4276,"RA_OF_ASC_NODE":144.305,"ARG_OF_PERICENTER":138.099,"MEAN_ANOMALY":222.0329,"EPHEMERIS_TYPE":0,"CLASSIFICATION_TYPE":"U","NORAD_CAT_ID":66765,"ELEMENT_SET_NO":999,"REV_AT_EPOCH":1534,"BSTAR":0.00044710703,"MEAN_MOTION_DOT":9.972e-5,"MEAN_MOTION_DDOT":0}]
